[{"OBJECT_NAME":"KUIPER-00279","OBJECT_ID":"2026-030AH","EPOCH":"2026-03-06T13:53:12.208992","MEAN_MOTION":15.35264306,"ECCENTRICITY":0.00065429,"INCLINATION":51.8802,"RA_OF_ASC_NODE":234.2115,"ARG_OF_PERICENTER":39.7132,"MEAN_ANOMALY":320.4332,"EPHEMERIS_TYPE":0,"CLASSIFICATION_TYPE":"U","NORAD_CAT_ID":67795,"ELEMENT_SET_NO":999,"REV_AT_EPOCH":461,"BSTAR":0.00063117168,"MEAN_MOTION_DOT":0.00021634,"MEAN_MOTION_DDOT":0},{"OBJECT_NAME":"CREW DRAGON 12","OBJECT_ID":"2026-031A","EPOCH":"2026-03-06T13:04:21.510624","MEAN_MOTION":15.48477653,"ECCENTRICITY":0.00081171,"INCLINATION":51.6317,"RA_OF_ASC_NODE":87.9051,"ARG_OF_PERICENTER":163.3368,"MEAN_ANOMALY":196.7888,"EPHEMERIS_TYPE":0,"CLASSIFICATION_TYPE":"U","NORAD_CAT_ID":67796,"ELEMENT_SET_NO":999,"REV_AT_EPOCH":55572,"BSTAR":0.00018044032,"MEAN_MOTION_DOT":9.332e-5,"MEAN_MOTION_DDOT":0},{"OBJECT_NAME":"STARLINK-36800","OBJECT_ID":"2026-032A","EPOCH":"2026-03-06T13:56:10.459968","MEAN_MOTION":15.75224016,"ECCENTRICITY":0.00013915,"INCLINATION":97.2845,"RA_OF_ASC_NODE":251.9096,"ARG_OF_PERICENTER":92.2343,"MEAN_ANOMALY":267.9082,"EPHEMERIS_TYPE":0,"CLASSIFICATION_TYPE":"U","NORAD_CAT_ID":67797,"ELEMENT_SET_NO":999,"REV_AT_EPOCH":429,"BSTAR":0.00068419635,"MEAN_MOTION_DOT":0.00103317,"MEAN_MOTION_DDOT":0},{"OBJECT_NAME":"STARLINK-36798","OBJECT_ID":"2026-032B","EPOCH":"2026-03-06T14:00:01.000224","MEAN_MOTION":15.7523498,"ECCENTRICITY":0.00014436,"INCLINATION":97.285,"RA_OF_ASC_NODE":251.9523,"ARG_OF_PERICENTER":81.3623,"MEAN_ANOMALY":25.88,"EPHEMERIS_TYPE":0,"CLASSIFICATION_TYPE":"U","NORAD_CAT_ID":67798,"ELEMENT_SET_NO":999,"REV_AT_EPOCH":422,"BSTAR":-0.00060696905,"MEAN_MOTION_DOT":-0.00089893,"MEAN_MOTION_DDOT":0},{"OBJECT_NAME":"STARLINK-36804","OBJECT_ID":"2026-032C","EPOCH":"2026-03-06T13:53:36.845952","MEAN_MOTION":15.75255851,"ECCENTRICITY":0.00016309,"INCLINATION":97.2846,"RA_OF_ASC_NODE":251.9121,"ARG_OF_PERICENTER":90.9736,"MEAN_ANOMALY":269.1716,"EPHEMERIS_TYPE":0,"CLASSIFICATION_TYPE":"U","NORAD_CAT_ID":67799,"ELEMENT_SET_NO":999,"REV_AT_EPOCH":429,"BSTAR":0.00072213295,"MEAN_MOTION_DOT":0.00109282,"MEAN_MOTION_DDOT":0},{"OBJECT_NAME":"STARLINK-36354","OBJECT_ID":"2026-032D","EPOCH":"2026-03-06T14:00:01.000224","MEAN_MOTION":15.75211394,"ECCENTRICITY":0.00014191,"INCLINATION":97.2849,"RA_OF_ASC_NODE":251.9464,"ARG_OF_PERICENTER":85.3627,"MEAN_ANOMALY":1.8886,"EPHEMERIS_TYPE":0,"CLASSIFICATION_TYPE":"U","NORAD_CAT_ID":67800,"ELEMENT_SET_NO":999,"REV_AT_EPOCH":428,"BSTAR":-8.6221231e-5,"MEAN_MOTION_DOT":-0.00012983,"MEAN_MOTION_DDOT":0},{"OBJECT_NAME":"STARLINK-36773","OBJECT_ID":"2026-032E","EPOCH":"2026-03-06T13:49:03.510048","MEAN_MOTION":15.75274802,"ECCENTRICITY":0.00016246,"INCLINATION":97.2847,"RA_OF_ASC_NODE":251.9162,"ARG_OF_PERICENTER":81.432,"MEAN_ANOMALY":278.7129,"EPHEMERIS_TYPE":0,"CLASSIFICATION_TYPE":"U","NORAD_CAT_ID":67801,"ELEMENT_SET_NO":999,"REV_AT_EPOCH":429,"BSTAR":0.0015182538,"MEAN_MOTION_DOT":0.00233484,"MEAN_MOTION_DDOT":0},{"OBJECT_NAME":"STARLINK-36739","OBJECT_ID":"2026-032F","EPOCH":"2026-03-06T14:00:01.000224","MEAN_MOTION":15.75227302,"ECCENTRICITY":0.00016895,"INCLINATION":97.2849,"RA_OF_ASC_NODE":251.969,"ARG_OF_PERICENTER":91.839,"MEAN_ANOMALY":55.3961,"EPHEMERIS_TYPE":0,"CLASSIFICATION_TYPE":"U","NORAD_CAT_ID":67802,"ELEMENT_SET_NO":999,"REV_AT_EPOCH":428,"BSTAR":-0.0004811115,"MEAN_MOTION_DOT":-0.00071412,"MEAN_MOTION_DDOT":0},{"OBJECT_NAME":"STARLINK-36768","OBJECT_ID":"2026-032G","EPOCH":"2026-03-06T13:40:25.249152","MEAN_MOTION":15.75236352,"ECCENTRICITY":0.00014428,"INCLINATION":97.2847,"RA_OF_ASC_NODE":251.9237,"ARG_OF_PERICENTER":84.855,"MEAN_ANOMALY":275.288,"EPHEMERIS_TYPE":0,"CLASSIFICATION_TYPE":"U","NORAD_CAT_ID":67803,"ELEMENT_SET_NO":999,"REV_AT_EPOCH":429,"BSTAR":0.00086574039,"MEAN_MOTION_DOT":0.00131267,"MEAN_MOTION_DDOT":0},{"OBJECT_NAME":"STARLINK-36792","OBJECT_ID":"2026-032H","EPOCH":"2026-03-06T13:43:58.842912","MEAN_MOTION":15.75236636,"ECCENTRICITY":0.00014649,"INCLINATION":97.2848,"RA_OF_ASC_NODE":251.9202,"ARG_OF_PERICENTER":38.7502,"MEAN_ANOMALY":321.3868,"EPHEMERIS_TYPE":0,"CLASSIFICATION_TYPE":"U","NORAD_CAT_ID":67804,"ELEMENT_SET_NO":999,"REV_AT_EPOCH":429,"BSTAR":0.0011066525,"MEAN_MOTION_DOT":0.00168573,"MEAN_MOTION_DDOT":0},{"OBJECT_NAME":"STARLINK-36782","OBJECT_ID":"2026-032J","EPOCH":"2026-03-06T14:42:29.709504","MEAN_MOTION":15.80485206,"ECCENTRICITY":0.00014119,"INCLINATION":97.2831,"RA_OF_ASC_NODE":252.018,"ARG_OF_PERICENTER":93.0699,"MEAN_ANOMALY":267.0731,"EPHEMERIS_TYPE":0,"CLASSIFICATION_TYPE":"U","NORAD_CAT_ID":67805,"ELEMENT_SET_NO":999,"REV_AT_EPOCH":430,"BSTAR":-0.0022257926,"MEAN_MOTION_DOT":-0.00401373,"MEAN_MOTION_DDOT":0},{"OBJECT_NAME":"STARLINK-36389","OBJECT_ID":"2026-032K","EPOCH":"2026-03-06T14:00:01.000224","MEAN_MOTION":15.75118444,"ECCENTRICITY":0.00012271,"INCLINATION":97.2841,"RA_OF_ASC_NODE":251.9601,"ARG_OF_PERICENTER":80.033,"MEAN_ANOMALY":47.1766,"EPHEMERIS_TYPE":0,"CLASSIFICATION_TYPE":"U","NORAD_CAT_ID":67806,"ELEMENT_SET_NO":999,"REV_AT_EPOCH":428,"BSTAR":0.00019617237,"MEAN_MOTION_DOT":0.0002914,"MEAN_MOTION_DDOT":0},{"OBJECT_NAME":"STARLINK-36382","OBJECT_ID":"2026-032L","EPOCH":"2026-03-06T14:00:01.000224","MEAN_MOTION":15.7522882,"ECCENTRICITY":0.00015824,"INCLINATION":97.2843,"RA_OF_ASC_NODE":251.964,"ARG_OF_PERICENTER":78.1895,"MEAN_ANOMALY":61.0464,"EPHEMERIS_TYPE":0,"CLASSIFICATION_TYPE":"U","NORAD_CAT_ID":67807,"ELEMENT_SET_NO":999,"REV_AT_EPOCH":422,"BSTAR":-0.00039117591,"MEAN_MOTION_DOT":-0.0005818,"MEAN_MOTION_DDOT":0},{"OBJECT_NAME":"STARLINK-36811","OBJECT_ID":"2026-032M","EPOCH":"2026-03-06T14:00:01.000224","MEAN_MOTION":15.75204312,"ECCENTRICITY":0.00016718,"INCLINATION":97.2844,"RA_OF_ASC_NODE":251.9882,"ARG_OF_PERICENTER":77.224,"MEAN_ANOMALY":118.0306,"EPHEMERIS_TYPE":0,"CLASSIFICATION_TYPE":"U","NORAD_CAT_ID":67808,"ELEMENT_SET_NO":999,"REV_AT_EPOCH":428,"BSTAR":-0.00035057721,"MEAN_MOTION_DOT":-0.00052137,"MEAN_MOTION_DDOT":0},{"OBJECT_NAME":"STARLINK-36795","OBJECT_ID":"2026-032N","EPOCH":"2026-03-06T13:34:49.926432","MEAN_MOTION":15.75229867,"ECCENTRICITY":0.00012135,"INCLINATION":97.2846,"RA_OF_ASC_NODE":251.928,"ARG_OF_PERICENTER":64.0587,"MEAN_ANOMALY":296.0803,"EPHEMERIS_TYPE":0,"CLASSIFICATION_TYPE":"U","NORAD_CAT_ID":67809,"ELEMENT_SET_NO":999,"REV_AT_EPOCH":429,"BSTAR":0.00085167196,"MEAN_MOTION_DOT":0.00129061,"MEAN_MOTION_DDOT":0},{"OBJECT_NAME":"STARLINK-36807","OBJECT_ID":"2026-032P","EPOCH":"2026-03-06T14:00:01.000224","MEAN_MOTION":15.75253476,"ECCENTRICITY":0.00018078,"INCLINATION":97.2843,"RA_OF_ASC_NODE":251.9847,"ARG_OF_PERICENTER":84.9933,"MEAN_ANOMALY":104.2308,"EPHEMERIS_TYPE":0,"CLASSIFICATION_TYPE":"U","NORAD_CAT_ID":67810,"ELEMENT_SET_NO":999,"REV_AT_EPOCH":428,"BSTAR":-0.00058900707,"MEAN_MOTION_DOT":-0.00087337,"MEAN_MOTION_DDOT":0}]
